GLOBALSTAR M067         
1 32263U 07048A   26024.01885792 -.00000050  00000+0  35161-3 0  9993
2 32263  51.9727 109.7521 0001804 105.8851  65.5944 12.40684196836893
GLOBALSTAR M070         
1 32264U 07048B   26024.15183672 -.00000076  00000+0  15311-3 0  9990
2 32264  51.9732 175.3473 0000786  99.6529  71.7146 12.62329773841570
GLOBALSTAR M066         
1 32265U 07048C   26023.98651905 -.00000089  00000+0  50345-4 0  9991
2 32265  51.9592 111.8715 0005600 104.6515  66.3386 12.30385254842478
GLOBALSTAR M068         
1 32266U 07048D   26024.20265270 -.00000049  00000+0  30504-3 0  9994
2 32266  51.9908 348.5186 0000696 276.5552  97.0415 12.62838734845480
GLOBALSTAR M079         
1 37188U 10054A   26024.20340661 -.00000093  00000+0  62171-4 0  9996
2 37188  52.0016 186.9775 0001207  85.1272  84.9921 12.62270111704367
GLOBALSTAR M074         
1 37189U 10054B   26023.82919493 -.00000096  00000+0  42112-4 0  9995
2 37189  51.9991 187.4054 0001164 101.2121  46.8245 12.62265636704923
GLOBALSTAR M076         
1 37190U 10054C   26024.17747816 -.00000081  00000+0  12561-3 0  9992
2 37190  52.0004 186.5365 0001291  96.9158  73.9911 12.62269926704688
GLOBALSTAR M077         
1 37191U 10054D   26023.84135546 -.00000051  00000+0  49234-3 0  9991
2 37191  51.9942 185.9063 0001691  93.9989  55.6220 11.68178038704272
